{
  "type": "FeatureCollection",
  "features": [
    {
      "type": "Feature",
      "properties": {
        "norad_id": 41599,
        "name": "CARTOSAT-2C",
        "group": "resource",
        "lat": -26.23239257411738,
        "lon": 53.88028475176727,
        "alt_km": 511.4702882087986,
        "timestamp": "2025-12-18T23:35:48.704521+00:00",
        "meta_object_name": "CARTOSAT-2C",
        "meta_object_id": "2016-040A",
        "meta_epoch": "2025-12-18T14:13:41.115936",
        "meta_mean_motion": 15.19164582,
        "meta_eccentricity": 0.0011185,
        "meta_inclination": 97.4763,
        "meta_ra_of_asc_node": 49.7837,
        "meta_arg_of_pericenter": 44.8731,
        "meta_mean_anomaly": 315.3406,
        "meta_ephemeris_type": 0,
        "meta_classification_type": "U",
        "meta_norad_cat_id": 41599,
        "meta_element_set_no": 999,
        "meta_rev_at_epoch": 52629,
        "meta_bstar": 0.0001240207,
        "meta_mean_motion_dot": 2.542e-05,
        "meta_mean_motion_ddot": 0,
        "tle_line1": "1 41599U 16040A   25352.59283699  .00002542  00000+0  12402-3 0  9991",
        "tle_line2": "2 41599  97.4763  49.7837 0011185  44.8731 315.3406 15.19164582526295"
      },
      "geometry": {
        "type": "Point",
        "coordinates": [
          53.88028475176727,
          -26.23239257411738
        ]
      }
    },
    {
      "type": "Feature",
      "properties": {
        "norad_id": 41601,
        "name": "SKYSAT-C1",
        "group": "resource",
        "lat": -29.867668960227228,
        "lon": 33.680862170083216,
        "alt_km": 472.7748802217029,
        "timestamp": "2025-12-18T23:35:48.704531+00:00",
        "meta_object_name": "SKYSAT-C1",
        "meta_object_id": "2016-040C",
        "meta_epoch": "2025-12-18T14:19:35.767200",
        "meta_mean_motion": 15.3269388,
        "meta_eccentricity": 0.00016646,
        "meta_inclination": 96.9818,
        "meta_ra_of_asc_node": 29.2807,
        "meta_arg_of_pericenter": 356.1128,
        "meta_mean_anomaly": 4.0102,
        "meta_ephemeris_type": 0,
        "meta_classification_type": "U",
        "meta_norad_cat_id": 41601,
        "meta_element_set_no": 999,
        "meta_rev_at_epoch": 53017,
        "meta_bstar": 0.00024321745,
        "meta_mean_motion_dot": 7.607e-05,
        "meta_mean_motion_ddot": 0,
        "tle_line1": "1 41601U 16040C   25352.59694175  .00007607  00000+0  24322-3 0  9991",
        "tle_line2": "2 41601  96.9818  29.2807 0001664 356.1128   4.0102 15.32693880530174"
      },
      "geometry": {
        "type": "Point",
        "coordinates": [
          33.680862170083216,
          -29.867668960227228
        ]
      }
    },
    {
      "type": "Feature",
      "properties": {
        "norad_id": 41603,
        "name": "LAPAN-A3",
        "group": "resource",
        "lat": 82.85159533019862,
        "lon": -98.62200298973067,
        "alt_km": 468.3910252644491,
        "timestamp": "2025-12-18T23:35:48.704542+00:00",
        "meta_object_name": "LAPAN-A3",
        "meta_object_id": "2016-040E",
        "meta_epoch": "2025-12-18T15:21:57.172320",
        "meta_mean_motion": 15.31598917,
        "meta_eccentricity": 0.00090747,
        "meta_inclination": 97.1422,
        "meta_ra_of_asc_node": 349.982,
        "meta_arg_of_pericenter": 310.1206,
        "meta_mean_anomaly": 49.924,
        "meta_ephemeris_type": 0,
        "meta_classification_type": "U",
        "meta_norad_cat_id": 41603,
        "meta_element_set_no": 999,
        "meta_rev_at_epoch": 52716,
        "meta_bstar": 0.00011138196,
        "meta_mean_motion_dot": 3.328e-05,
        "meta_mean_motion_ddot": 0,
        "tle_line1": "1 41603U 16040E   25352.64024505  .00003328  00000+0  11138-3 0  9990",
        "tle_line2": "2 41603  97.1422 349.9820 0009074 310.1206  49.9240 15.31598917527167"
      },
      "geometry": {
        "type": "Point",
        "coordinates": [
          -98.62200298973067,
          82.85159533019862
        ]
      }
    },
    {
      "type": "Feature",
      "properties": {
        "norad_id": 41604,
        "name": "BIROS",
        "group": "resource",
        "lat": 14.753585223744823,
        "lon": -153.4505701608432,
        "alt_km": 295.3790208747196,
        "timestamp": "2025-12-18T23:35:48.704553+00:00",
        "meta_object_name": "BIROS",
        "meta_object_id": "2016-040F",
        "meta_epoch": "2025-12-18T15:21:48.240288",
        "meta_mean_motion": 15.91957755,
        "meta_eccentricity": 0.00036858,
        "meta_inclination": 97.0683,
        "meta_ra_of_asc_node": 24.3187,
        "meta_arg_of_pericenter": 135.4463,
        "meta_mean_anomaly": 224.7109,
        "meta_ephemeris_type": 0,
        "meta_classification_type": "U",
        "meta_norad_cat_id": 41604,
        "meta_element_set_no": 999,
        "meta_rev_at_epoch": 52966,
        "meta_bstar": 0.00057739272,
        "meta_mean_motion_dot": 0.00189106,
        "meta_mean_motion_ddot": 1.5181401e-05,
        "tle_line1": "1 41604U 16040F   25352.64014167  .00189106  15181-4  57739-3 0  9991",
        "tle_line2": "2 41604  97.0683  24.3187 0003685 135.4463 224.7109 15.91957755529660"
      },
      "geometry": {
        "type": "Point",
        "coordinates": [
          -153.4505701608432,
          14.753585223744823
        ]
      }
    },
    {
      "type": "Feature",
      "properties": {
        "norad_id": 41727,
        "name": "GAOFEN-3",
        "group": "resource",
        "lat": 21.67104621123699,
        "lon": -4.892848693046204,
        "alt_km": 750.2050591984907,
        "timestamp": "2025-12-18T23:35:48.704563+00:00",
        "meta_object_name": "GAOFEN-3",
        "meta_object_id": "2016-049A",
        "meta_epoch": "2025-12-18T15:10:12.715968",
        "meta_mean_motion": 14.42215499,
        "meta_eccentricity": 0.00012841,
        "meta_inclination": 98.4034,
        "meta_ra_of_asc_node": 358.1289,
        "meta_arg_of_pericenter": 57.674,
        "meta_mean_anomaly": 302.4573,
        "meta_ephemeris_type": 0,
        "meta_classification_type": "U",
        "meta_norad_cat_id": 41727,
        "meta_element_set_no": 999,
        "meta_rev_at_epoch": 49262,
        "meta_bstar": 6.24291e-05,
        "meta_mean_motion_dot": 1.62e-06,
        "meta_mean_motion_ddot": 0,
        "tle_line1": "1 41727U 16049A   25352.63209162  .00000162  00000+0  62429-4 0  9992",
        "tle_line2": "2 41727  98.4034 358.1289 0001284  57.6740 302.4573 14.42215499492629"
      },
      "geometry": {
        "type": "Point",
        "coordinates": [
          -4.892848693046204,
          21.67104621123699
        ]
      }
    },
    {
      "type": "Feature",
      "properties": {
        "norad_id": 41771,
        "name": "SKYSAT-C4",
        "group": "resource",
        "lat": 56.571399058956445,
        "lon": -151.50365445410287,
        "alt_km": 432.2202861834121,
        "timestamp": "2025-12-18T23:35:48.704573+00:00",
        "meta_object_name": "SKYSAT-C4",
        "meta_object_id": "2016-058B",
        "meta_epoch": "2025-12-18T15:16:53.676768",
        "meta_mean_motion": 15.42414092,
        "meta_eccentricity": 0.00020415,
        "meta_inclination": 96.9365,
        "meta_ra_of_asc_node": 17.5383,
        "meta_arg_of_pericenter": 129.8527,
        "meta_mean_anomaly": 230.2902,
        "meta_ephemeris_type": 0,
        "meta_classification_type": "U",
        "meta_norad_cat_id": 41771,
        "meta_element_set_no": 999,
        "meta_rev_at_epoch": 51758,
        "meta_bstar": 0.00028785396,
        "meta_mean_motion_dot": 0.00012366,
        "meta_mean_motion_ddot": 0,
        "tle_line1": "1 41771U 16058B   25352.63673237  .00012366  00000+0  28785-3 0  9994",
        "tle_line2": "2 41771  96.9365  17.5383 0002041 129.8527 230.2902 15.42414092517584"
      },
      "geometry": {
        "type": "Point",
        "coordinates": [
          -151.50365445410287,
          56.571399058956445
        ]
      }
    },
    {
      "type": "Feature",
      "properties": {
        "norad_id": 41772,
        "name": "SKYSAT-C5",
        "group": "resource",
        "lat": -32.88875570118875,
        "lon": -148.13207624933796,
        "alt_km": 468.57706338498247,
        "timestamp": "2025-12-18T23:35:48.704584+00:00",
        "meta_object_name": "SKYSAT-C5",
        "meta_object_id": "2016-058C",
        "meta_epoch": "2025-12-18T02:19:04.577664",
        "meta_mean_motion": 15.33970386,
        "meta_eccentricity": 0.00037557,
        "meta_inclination": 97.0755,
        "meta_ra_of_asc_node": 35.6253,
        "meta_arg_of_pericenter": 267.8506,
        "meta_mean_anomaly": 92.2307,
        "meta_ephemeris_type": 0,
        "meta_classification_type": "U",
        "meta_norad_cat_id": 41772,
        "meta_element_set_no": 999,
        "meta_rev_at_epoch": 51598,
        "meta_bstar": 0.00023286451,
        "meta_mean_motion_dot": 7.58e-05,
        "meta_mean_motion_ddot": 0,
        "tle_line1": "1 41772U 16058C   25352.09658076  .00007580  00000+0  23286-3 0  9992",
        "tle_line2": "2 41772  97.0755  35.6253 0003755 267.8506  92.2307 15.33970386515980"
      },
      "geometry": {
        "type": "Point",
        "coordinates": [
          -148.13207624933796,
          -32.88875570118875
        ]
      }
    }
  ]
}